STARLINK-30535          
1 58001U 23153L   26068.05566297 -.00000365  00000+0 -39061-5 0  9999
2 58001  42.9996  70.2617 0001859 273.2776  86.7863 15.26739724134805
FLOCK 4G-21             
1 62651U 25009AU  26068.19487675  .00013648  00000+0  49619-3 0  9998
2 62651  97.4032 151.1274 0000465 329.5782  30.5431 15.28381075 63677
